HAWK-2C                 
1 47502U 21006CT  26068.67595434  .00008129  00000+0  25493-3 0  9997
2 47502  97.2417 114.9961 0006943 184.0877 176.0310 15.33286436284247
STARLINK-34902          
1 65326U 25189D   26068.61374989  .00027084  00000+0  92347-3 0  9994
2 65326  53.1578 207.2057 0001031  75.6087 284.5028 15.30191534 31098
