[{"OBJECT_NAME":"HAWK-2C","OBJECT_ID":"2021-006CT","EPOCH":"2026-03-09T16:13:22.454976","MEAN_MOTION":15.33286436,"ECCENTRICITY":0.0006943,"INCLINATION":97.2417,"RA_OF_ASC_NODE":114.9961,"ARG_OF_PERICENTER":184.0877,"MEAN_ANOMALY":176.031,"EPHEMERIS_TYPE":0,"CLASSIFICATION_TYPE":"U","NORAD_CAT_ID":47502,"ELEMENT_SET_NO":999,"REV_AT_EPOCH":28424,"BSTAR":0.00025492914,"MEAN_MOTION_DOT":8.129e-5,"MEAN_MOTION_DDOT":0},{"OBJECT_NAME":"STARLINK-34902","OBJECT_ID":"2025-189D","EPOCH":"2026-03-09T14:43:47.990496","MEAN_MOTION":15.30191534,"ECCENTRICITY":0.0001031,"INCLINATION":53.1578,"RA_OF_ASC_NODE":207.2057,"ARG_OF_PERICENTER":75.6087,"MEAN_ANOMALY":284.5028,"EPHEMERIS_TYPE":0,"CLASSIFICATION_TYPE":"U","NORAD_CAT_ID":65326,"ELEMENT_SET_NO":999,"REV_AT_EPOCH":3109,"BSTAR":0.00092347,"MEAN_MOTION_DOT":0.00027084,"MEAN_MOTION_DDOT":0}]
